QIANFAN-97              
1 66039U 25233G   25363.59879060  .00000045  00000+0  44393-4 0  9997
2 66039  88.9884  60.3897 0012535 350.9457   9.1471 13.59208668 10284
QIANFAN-98              
1 66040U 25233H   25363.79254854  .00000224  00000+0  19471-3 0  9996
2 66040  88.9937  60.2522 0014163 355.3658   4.7378 13.82581445 10370
QIANFAN-99              
1 66041U 25233J   25363.77106894  .00000028  00000+0  22540-4 0  9999
2 66041  88.9946  60.3775 0014545 355.8796   4.2237 13.57808325 10307
QIANFAN-100             
1 66042U 25233K   25363.71100753  .00000017  00000+0  55264-5 0  9990
2 66042  88.9962  60.2911 0016259   4.3969 355.7332 13.67937508 10340
QIANFAN-101             
1 66043U 25233L   25363.77978741  .00000311  00000+0  12265-3 0  9996
2 66043  88.9945  60.0664 0013950 348.2563  11.8303 14.26685874 10474
QIANFAN-102             
1 66044U 25233M   25363.79725455  .00000174  00000+0  19426-3 0  9994
2 66044  88.9944  60.3450 0014324 357.1415   2.9660 13.66800798 10329
QIANFAN-103             
1 66045U 25233N   25363.62409807  .00000033  00000+0  28006-4 0  9996
2 66045  88.9929  60.3888 0013702 353.7903   6.3081 13.58809474 10282
QIANFAN-104             
1 66046U 25233P   25363.79271181  .00000190  00000+0  19658-3 0  9993
2 66046  88.9948  60.3458 0013787   0.9397 359.1789 13.71545893 10324
